[{"OBJECT_NAME":"DAMPE","OBJECT_ID":"2015-078A","EPOCH":"2026-03-09T23:55:00.527232","MEAN_MOTION":15.30502084,"ECCENTRICITY":0.00138005,"INCLINATION":97.4588,"RA_OF_ASC_NODE":73.9866,"ARG_OF_PERICENTER":70.6942,"MEAN_ANOMALY":289.579,"EPHEMERIS_TYPE":0,"CLASSIFICATION_TYPE":"U","NORAD_CAT_ID":41173,"ELEMENT_SET_NO":999,"REV_AT_EPOCH":56937,"BSTAR":9.1158173e-5,"MEAN_MOTION_DOT":2.617e-5,"MEAN_MOTION_DDOT":0},{"OBJECT_NAME":"STARLINK-31417","OBJECT_ID":"2024-046R","EPOCH":"2026-03-09T22:32:22.560000","MEAN_MOTION":15.30194762,"ECCENTRICITY":0.00010089,"INCLINATION":53.1611,"RA_OF_ASC_NODE":154.4681,"ARG_OF_PERICENTER":92.4386,"MEAN_ANOMALY":267.673,"EPHEMERIS_TYPE":0,"CLASSIFICATION_TYPE":"U","NORAD_CAT_ID":59216,"ELEMENT_SET_NO":999,"REV_AT_EPOCH":11295,"BSTAR":2.8031089e-5,"MEAN_MOTION_DOT":4.71e-6,"MEAN_MOTION_DDOT":0}]
